{
"type": "FeatureCollection",
"name": "lakes",
"crs": { "type": "name", "properties": { "name": "urn:ogc:def:crs:OGC:1.3:CRS84" } },
"features": [
{ "type": "Feature", "properties": { "name": "Gandhi Sagar Dam", "name_en": "Gandhi Sagar Dam", "scalerank": 8 }, "geometry": { "type": "Polygon", "coordinates": [ [ [ 75.634953, 24.637508 ], [ 75.646728, 24.617786 ], [ 75.638485, 24.621024 ], [ 75.628477, 24.623084 ], [ 75.619057, 24.622496 ], [ 75.611993, 24.617786 ], [ 75.609049, 24.607483 ], [ 75.614348, 24.600713 ], [ 75.622001, 24.595708 ], [ 75.626122, 24.59041 ], [ 75.626122, 24.525944 ], [ 75.622001, 24.517408 ], [ 75.588444, 24.477374 ], [ 75.588149, 24.464716 ], [ 75.607283, 24.422917 ], [ 75.611993, 24.405844 ], [ 75.594036, 24.416441 ], [ 75.580201, 24.431159 ], [ 75.570782, 24.44676 ], [ 75.564306, 24.460595 ], [ 75.554003, 24.455591 ], [ 75.546644, 24.449704 ], [ 75.529571, 24.431453 ], [ 75.526627, 24.427038 ], [ 75.524861, 24.422328 ], [ 75.524567, 24.415852 ], [ 75.521917, 24.408493 ], [ 75.515736, 24.407021 ], [ 75.508671, 24.40761 ], [ 75.503372, 24.405844 ], [ 75.468049, 24.346676 ], [ 75.451859, 24.336962 ], [ 75.43714, 24.33343 ], [ 75.432725, 24.325188 ], [ 75.431547, 24.315768 ], [ 75.427721, 24.309292 ], [ 75.417418, 24.306054 ], [ 75.383272, 24.309292 ], [ 75.365904, 24.299284 ], [ 75.373852, 24.276618 ], [ 75.400345, 24.241 ], [ 75.38651, 24.241 ], [ 75.388276, 24.237173 ], [ 75.391808, 24.230697 ], [ 75.39328, 24.227165 ], [ 75.3818, 24.223632 ], [ 75.371792, 24.225693 ], [ 75.3609, 24.225398 ], [ 75.345593, 24.213624 ], [ 75.338234, 24.225398 ], [ 75.341472, 24.233346 ], [ 75.348537, 24.241 ], [ 75.352658, 24.251302 ], [ 75.349714, 24.261605 ], [ 75.343238, 24.266904 ], [ 75.336468, 24.270436 ], [ 75.332052, 24.275146 ], [ 75.332936, 24.284566 ], [ 75.336468, 24.296046 ], [ 75.337057, 24.305171 ], [ 75.328226, 24.309292 ], [ 75.310269, 24.310175 ], [ 75.303793, 24.312236 ], [ 75.297906, 24.316062 ], [ 75.303793, 24.321067 ], [ 75.309975, 24.324893 ], [ 75.31704, 24.327543 ], [ 75.343533, 24.334019 ], [ 75.37032, 24.353152 ], [ 75.407998, 24.363161 ], [ 75.422128, 24.376702 ], [ 75.427721, 24.394658 ], [ 75.42095, 24.412908 ], [ 75.455685, 24.42586 ], [ 75.463928, 24.43528 ], [ 75.448032, 24.447055 ], [ 75.463928, 24.454119 ], [ 75.508082, 24.482967 ], [ 75.516913, 24.490915 ], [ 75.520445, 24.502101 ], [ 75.528099, 24.510932 ], [ 75.544289, 24.522706 ], [ 75.548999, 24.525355 ], [ 75.560773, 24.534775 ], [ 75.568427, 24.544783 ], [ 75.560773, 24.549493 ], [ 75.550176, 24.562151 ], [ 75.546938, 24.590704 ], [ 75.549882, 24.621024 ], [ 75.557241, 24.638686 ], [ 75.581379, 24.647811 ], [ 75.610227, 24.647222 ], [ 75.634953, 24.637508 ] ] ] } },
{ "type": "Feature", "properties": { "name": null, "name_en": null, "scalerank": 8 }, "geometry": { "type": "Polygon", "coordinates": [ [ [ 75.573137, 24.836204 ], [ 75.577846, 24.854454 ], [ 75.57608, 24.862402 ], [ 75.566661, 24.874766 ], [ 75.564306, 24.885068 ], [ 75.57137, 24.909501 ], [ 75.571665, 24.918626 ], [ 75.576963, 24.922453 ], [ 75.582556, 24.925102 ], [ 75.589621, 24.926279 ], [ 75.599041, 24.926279 ], [ 75.593742, 24.90273 ], [ 75.605222, 24.87506 ], [ 75.622295, 24.84739 ], [ 75.633776, 24.823252 ], [ 75.639369, 24.792638 ], [ 75.637897, 24.778214 ], [ 75.629949, 24.765262 ], [ 75.606989, 24.739064 ], [ 75.591976, 24.730527 ], [ 75.585206, 24.744951 ], [ 75.555475, 24.75702 ], [ 75.418301, 24.7267 ], [ 75.379739, 24.754959 ], [ 75.411825, 24.754959 ], [ 75.43508, 24.758492 ], [ 75.457157, 24.764379 ], [ 75.472464, 24.772327 ], [ 75.486888, 24.781747 ], [ 75.530748, 24.795876 ], [ 75.545466, 24.805001 ], [ 75.560773, 24.819131 ], [ 75.573137, 24.836204 ] ] ] } },
{ "type": "Feature", "properties": { "name": "Gobind Sagar Reservoir", "name_en": "Gobind Sagar", "scalerank": 7 }, "geometry": { "type": "Polygon", "coordinates": [ [ [ 76.778852, 31.239801 ], [ 76.784445, 31.216841 ], [ 76.762368, 31.234208 ], [ 76.726161, 31.293375 ], [ 76.705261, 31.306327 ], [ 76.703495, 31.300146 ], [ 76.698196, 31.273064 ], [ 76.695547, 31.265411 ], [ 76.684656, 31.259524 ], [ 76.670526, 31.257463 ], [ 76.64786, 31.257757 ], [ 76.639324, 31.262173 ], [ 76.621367, 31.267471 ], [ 76.613125, 31.271298 ], [ 76.606355, 31.276597 ], [ 76.598701, 31.286016 ], [ 76.544538, 31.338413 ], [ 76.538062, 31.350482 ], [ 76.531586, 31.354309 ], [ 76.493613, 31.388161 ], [ 76.481839, 31.394048 ], [ 76.470359, 31.406411 ], [ 76.45564, 31.41848 ], [ 76.435035, 31.422307 ], [ 76.442688, 31.429077 ], [ 76.40707, 31.497958 ], [ 76.384993, 31.522979 ], [ 76.373218, 31.532399 ], [ 76.359089, 31.538875 ], [ 76.370863, 31.55065 ], [ 76.370275, 31.567428 ], [ 76.362327, 31.585385 ], [ 76.352613, 31.600397 ], [ 76.372335, 31.592449 ], [ 76.383815, 31.572433 ], [ 76.392352, 31.548295 ], [ 76.403832, 31.528278 ], [ 76.428853, 31.500313 ], [ 76.444454, 31.488244 ], [ 76.462411, 31.484418 ], [ 76.458878, 31.467345 ], [ 76.466532, 31.457925 ], [ 76.477423, 31.450566 ], [ 76.482722, 31.439969 ], [ 76.488903, 31.437614 ], [ 76.516279, 31.411121 ], [ 76.553369, 31.366378 ], [ 76.561906, 31.361374 ], [ 76.599584, 31.321634 ], [ 76.606355, 31.309565 ], [ 76.611065, 31.298674 ], [ 76.62225, 31.289254 ], [ 76.63638, 31.28219 ], [ 76.64786, 31.278363 ], [ 76.665816, 31.278952 ], [ 76.678474, 31.286311 ], [ 76.681418, 31.294847 ], [ 76.671704, 31.298674 ], [ 76.666994, 31.304267 ], [ 76.611948, 31.351365 ], [ 76.578979, 31.388161 ], [ 76.586338, 31.394931 ], [ 76.596935, 31.379624 ], [ 76.616952, 31.364612 ], [ 76.640207, 31.356664 ], [ 76.660518, 31.361374 ], [ 76.659929, 31.348716 ], [ 76.66405, 31.339885 ], [ 76.669643, 31.331643 ], [ 76.674647, 31.320457 ], [ 76.697902, 31.320751 ], [ 76.720568, 31.313098 ], [ 76.735875, 31.315747 ], [ 76.736464, 31.347244 ], [ 76.742351, 31.358724 ], [ 76.742351, 31.364906 ], [ 76.733226, 31.367555 ], [ 76.725278, 31.368733 ], [ 76.718213, 31.371971 ], [ 76.714975, 31.377564 ], [ 76.719096, 31.384628 ], [ 76.72881, 31.394342 ], [ 76.739113, 31.401701 ], [ 76.750593, 31.407 ], [ 76.764723, 31.408766 ], [ 76.756775, 31.401701 ], [ 76.750593, 31.394931 ], [ 76.746178, 31.388161 ], [ 76.743528, 31.38139 ], [ 76.751771, 31.386689 ], [ 76.760307, 31.388749 ], [ 76.769138, 31.386689 ], [ 76.777675, 31.38139 ], [ 76.76119, 31.361079 ], [ 76.751182, 31.313687 ], [ 76.736464, 31.298674 ], [ 76.7659, 31.260995 ], [ 76.778852, 31.239801 ] ] ] } },
{ "type": "Feature", "properties": { "name": null, "name_en": null, "scalerank": 6 }, "geometry": { "type": "Polygon", "coordinates": [ [ [ 75.91872, 32.11053 ], [ 75.921369, 32.114357 ], [ 75.919014, 32.122894 ], [ 75.91872, 32.12672 ], [ 75.922252, 32.12937 ], [ 75.935499, 32.130841 ], [ 75.941681, 32.132313 ], [ 75.945507, 32.135257 ], [ 75.946096, 32.139672 ], [ 75.944624, 32.144382 ], [ 75.933144, 32.161455 ], [ 75.931083, 32.166165 ], [ 75.930495, 32.170875 ], [ 75.932555, 32.17529 ], [ 75.937265, 32.177645 ], [ 75.942564, 32.178823 ], [ 75.953749, 32.178234 ], [ 75.974355, 32.168226 ], [ 75.998198, 32.137023 ], [ 76.006146, 32.132902 ], [ 76.012034, 32.132608 ], [ 76.015272, 32.137023 ], [ 76.02528, 32.157923 ], [ 76.02999, 32.162044 ], [ 76.034994, 32.165282 ], [ 76.042353, 32.167048 ], [ 76.043825, 32.164104 ], [ 76.042942, 32.141144 ], [ 76.039409, 32.122599 ], [ 76.039115, 32.11524 ], [ 76.040587, 32.107881 ], [ 76.045591, 32.099933 ], [ 76.052067, 32.097284 ], [ 76.057954, 32.098167 ], [ 76.063547, 32.100522 ], [ 76.070612, 32.101111 ], [ 76.07385, 32.097578 ], [ 76.076499, 32.091985 ], [ 76.080326, 32.085804 ], [ 76.085625, 32.083449 ], [ 76.098577, 32.084921 ], [ 76.106524, 32.084626 ], [ 76.11094, 32.081094 ], [ 76.112412, 32.076678 ], [ 76.111234, 32.071085 ], [ 76.104758, 32.05519 ], [ 76.104758, 32.047536 ], [ 76.106524, 32.039588 ], [ 76.112117, 32.027814 ], [ 76.117122, 32.021632 ], [ 76.12242, 32.017511 ], [ 76.128307, 32.015451 ], [ 76.135078, 32.014568 ], [ 76.141554, 32.014862 ], [ 76.160982, 32.018689 ], [ 76.16893, 32.017511 ], [ 76.172756, 32.013684 ], [ 76.173345, 32.00868 ], [ 76.171579, 32.004559 ], [ 76.169813, 32.001615 ], [ 76.169224, 32.001027 ], [ 76.169224, 32.000732 ], [ 76.16893, 32.000438 ], [ 76.168635, 32.000144 ], [ 76.168341, 31.999849 ], [ 76.168341, 31.999555 ], [ 76.160982, 31.991018 ], [ 76.158333, 31.986014 ], [ 76.157449, 31.980127 ], [ 76.158627, 31.97424 ], [ 76.160982, 31.968058 ], [ 76.187475, 31.925081 ], [ 76.1966, 31.906242 ], [ 76.199544, 31.895644 ], [ 76.200427, 31.882692 ], [ 76.200132, 31.877983 ], [ 76.197777, 31.873567 ], [ 76.193656, 31.870329 ], [ 76.188358, 31.868857 ], [ 76.18247, 31.869446 ], [ 76.176583, 31.871507 ], [ 76.171579, 31.87445 ], [ 76.159804, 31.885342 ], [ 76.155389, 31.887402 ], [ 76.15009, 31.887108 ], [ 76.145381, 31.884459 ], [ 76.137727, 31.876511 ], [ 76.133606, 31.873567 ], [ 76.128602, 31.872095 ], [ 76.123598, 31.873273 ], [ 76.119182, 31.876216 ], [ 76.116533, 31.880632 ], [ 76.114472, 31.885636 ], [ 76.112117, 31.890346 ], [ 76.108585, 31.893878 ], [ 76.102109, 31.895056 ], [ 76.088568, 31.896233 ], [ 76.08327, 31.898588 ], [ 76.080032, 31.902415 ], [ 76.080326, 31.912718 ], [ 76.079149, 31.917722 ], [ 76.075911, 31.921548 ], [ 76.071201, 31.923903 ], [ 76.051184, 31.926553 ], [ 76.007912, 31.941271 ], [ 76.003791, 31.94392 ], [ 76.000553, 31.946864 ], [ 75.997904, 31.94863 ], [ 75.993194, 31.950985 ], [ 75.980242, 31.954223 ], [ 75.969351, 31.959521 ], [ 75.963463, 31.961288 ], [ 75.942269, 31.962171 ], [ 75.936676, 31.963348 ], [ 75.93491, 31.964526 ], [ 75.934616, 31.965409 ], [ 75.934616, 31.965997 ], [ 75.934321, 31.967469 ], [ 75.939914, 31.975711 ], [ 75.944035, 31.986897 ], [ 75.946979, 31.991901 ], [ 75.954044, 31.999555 ], [ 75.954044, 31.999849 ], [ 75.954044, 32.000438 ], [ 75.954338, 32.000438 ], [ 75.958165, 32.036939 ], [ 75.956693, 32.041649 ], [ 75.951983, 32.044593 ], [ 75.93962, 32.049008 ], [ 75.93491, 32.051952 ], [ 75.931378, 32.055778 ], [ 75.930495, 32.060488 ], [ 75.931378, 32.064904 ], [ 75.931967, 32.070497 ], [ 75.931672, 32.075501 ], [ 75.933144, 32.080799 ], [ 75.936676, 32.089042 ], [ 75.934616, 32.092868 ], [ 75.929317, 32.095518 ], [ 75.917543, 32.099933 ], [ 75.913716, 32.102877 ], [ 75.912244, 32.10582 ], [ 75.914893, 32.108764 ], [ 75.91872, 32.11053 ] ] ] } },
{ "type": "Feature", "properties": { "name": null, "name_en": null, "scalerank": 8 }, "geometry": { "type": "Polygon", "coordinates": [ [ [ 73.865825, 33.149636 ], [ 73.87024, 33.13845 ], [ 73.87024, 33.128441 ], [ 73.864059, 33.123143 ], [ 73.851695, 33.125792 ], [ 73.846397, 33.127853 ], [ 73.841687, 33.12903 ], [ 73.83109, 33.12903 ], [ 73.823142, 33.131679 ], [ 73.820787, 33.137567 ], [ 73.820198, 33.144337 ], [ 73.817549, 33.149636 ], [ 73.795766, 33.162882 ], [ 73.728357, 33.190552 ], [ 73.712167, 33.207625 ], [ 73.704219, 33.209686 ], [ 73.700981, 33.194085 ], [ 73.702453, 33.184959 ], [ 73.714522, 33.155817 ], [ 73.669189, 33.134917 ], [ 73.650056, 33.132268 ], [ 73.63887, 33.149636 ], [ 73.641519, 33.152874 ], [ 73.647407, 33.160821 ], [ 73.652116, 33.172007 ], [ 73.652411, 33.183782 ], [ 73.646818, 33.194085 ], [ 73.638576, 33.200266 ], [ 73.618559, 33.211158 ], [ 73.615026, 33.216162 ], [ 73.613555, 33.222638 ], [ 73.612966, 33.228525 ], [ 73.612083, 33.231469 ], [ 73.607079, 33.231763 ], [ 73.598836, 33.229997 ], [ 73.59236, 33.227348 ], [ 73.585296, 33.227348 ], [ 73.581175, 33.226759 ], [ 73.57882, 33.228231 ], [ 73.577348, 33.238534 ], [ 73.580586, 33.238239 ], [ 73.587356, 33.2403 ], [ 73.594421, 33.243243 ], [ 73.597953, 33.245893 ], [ 73.596482, 33.265615 ], [ 73.592655, 33.285043 ], [ 73.590889, 33.303588 ], [ 73.597953, 33.320956 ], [ 73.60855, 33.309475 ], [ 73.614438, 33.296818 ], [ 73.613849, 33.283866 ], [ 73.604724, 33.27268 ], [ 73.617087, 33.255901 ], [ 73.637104, 33.234118 ], [ 73.658887, 33.22146 ], [ 73.676549, 33.231174 ], [ 73.679787, 33.240888 ], [ 73.680964, 33.251486 ], [ 73.680375, 33.272974 ], [ 73.684791, 33.28416 ], [ 73.693033, 33.28887 ], [ 73.698626, 33.293874 ], [ 73.69421, 33.306826 ], [ 73.717465, 33.309181 ], [ 73.733066, 33.318012 ], [ 73.744547, 33.323016 ], [ 73.748668, 33.320956 ], [ 73.753378, 33.297701 ], [ 73.741603, 33.270619 ], [ 73.721586, 33.246481 ], [ 73.700981, 33.231469 ], [ 73.715405, 33.225582 ], [ 73.762503, 33.217928 ], [ 73.788996, 33.20792 ], [ 73.802536, 33.204387 ], [ 73.817549, 33.204976 ], [ 73.810779, 33.180838 ], [ 73.825497, 33.169947 ], [ 73.847868, 33.162588 ], [ 73.865825, 33.149636 ] ] ] } },
{ "type": "Feature", "properties": { "name": "Banggong Co", "name_en": "Pangong Tso", "scalerank": 6 }, "geometry": { "type": "Polygon", "coordinates": [ [ [ 78.980401, 33.735715 ], [ 78.984817, 33.720996 ], [ 78.970393, 33.711577 ], [ 78.948316, 33.706573 ], [ 78.928888, 33.704512 ], [ 78.861773, 33.689499 ], [ 78.8238, 33.698919 ], [ 78.799956, 33.690088 ], [ 78.776407, 33.677136 ], [ 78.758157, 33.669777 ], [ 78.727543, 33.678019 ], [ 78.69163, 33.703629 ], [ 78.656307, 33.738364 ], [ 78.628048, 33.773393 ], [ 78.605382, 33.809011 ], [ 78.590958, 33.826967 ], [ 78.576534, 33.834915 ], [ 78.563582, 33.839919 ], [ 78.486458, 33.893199 ], [ 78.456728, 33.92087 ], [ 78.435533, 33.951483 ], [ 78.435533, 33.978859 ], [ 78.447897, 33.967674 ], [ 78.456728, 33.968851 ], [ 78.464675, 33.975033 ], [ 78.473506, 33.978859 ], [ 78.488225, 33.979154 ], [ 78.49735, 33.977682 ], [ 78.501765, 33.973561 ], [ 78.502648, 33.95531 ], [ 78.505003, 33.949129 ], [ 78.511185, 33.937943 ], [ 78.545331, 33.896437 ], [ 78.551807, 33.907918 ], [ 78.559461, 33.905857 ], [ 78.576534, 33.886429 ], [ 78.589191, 33.87907 ], [ 78.60126, 33.874949 ], [ 78.61068, 33.869945 ], [ 78.618334, 33.846101 ], [ 78.637467, 33.831972 ], [ 78.641588, 33.824318 ], [ 78.679561, 33.783107 ], [ 78.729014, 33.744545 ], [ 78.75904, 33.728944 ], [ 78.785532, 33.725117 ], [ 78.792597, 33.728944 ], [ 78.805255, 33.742485 ], [ 78.813497, 33.746017 ], [ 78.820856, 33.74484 ], [ 78.833514, 33.735715 ], [ 78.840284, 33.732477 ], [ 78.855885, 33.730416 ], [ 78.868249, 33.731888 ], [ 78.880023, 33.737186 ], [ 78.895625, 33.746017 ], [ 78.913286, 33.734243 ], [ 78.962445, 33.74013 ], [ 78.980401, 33.735715 ] ] ] } },
{ "type": "Feature", "properties": { "name": "Tarbela Dam", "name_en": "Tarbela Dam", "scalerank": 7 }, "geometry": { "type": "Polygon", "coordinates": [ [ [ 73.019233, 34.07806 ], [ 73.020411, 34.062753 ], [ 72.999805, 34.050979 ], [ 72.957711, 34.036555 ], [ 72.930336, 34.015066 ], [ 72.914145, 34.011828 ], [ 72.891479, 34.019776 ], [ 72.879705, 34.031256 ], [ 72.874112, 34.045386 ], [ 72.870874, 34.060693 ], [ 72.864987, 34.075116 ], [ 72.851446, 34.088952 ], [ 72.834373, 34.096899 ], [ 72.814356, 34.100726 ], [ 72.792573, 34.101904 ], [ 72.774911, 34.096311 ], [ 72.746947, 34.073056 ], [ 72.731345, 34.067463 ], [ 72.716038, 34.076588 ], [ 72.696905, 34.095722 ], [ 72.689251, 34.114561 ], [ 72.756955, 34.138699 ], [ 72.779621, 34.151357 ], [ 72.789041, 34.166958 ], [ 72.793456, 34.17991 ], [ 72.81259, 34.190213 ], [ 72.817005, 34.201104 ], [ 72.816417, 34.224948 ], [ 72.814356, 34.237017 ], [ 72.809646, 34.246436 ], [ 72.826131, 34.268514 ], [ 72.834373, 34.292651 ], [ 72.837022, 34.345048 ], [ 72.834078, 34.352407 ], [ 72.821126, 34.377428 ], [ 72.817005, 34.389792 ], [ 72.816122, 34.404804 ], [ 72.816711, 34.418639 ], [ 72.815534, 34.43218 ], [ 72.809646, 34.445132 ], [ 72.829957, 34.472508 ], [ 72.830546, 34.486637 ], [ 72.826719, 34.491053 ], [ 72.819655, 34.490759 ], [ 72.775794, 34.499589 ], [ 72.768435, 34.505771 ], [ 72.767552, 34.520195 ], [ 72.774911, 34.530792 ], [ 72.784331, 34.540212 ], [ 72.790218, 34.553752 ], [ 72.792573, 34.555813 ], [ 72.794928, 34.558757 ], [ 72.795811, 34.564938 ], [ 72.793751, 34.570826 ], [ 72.784037, 34.579362 ], [ 72.775206, 34.602028 ], [ 72.774323, 34.613508 ], [ 72.781682, 34.622634 ], [ 72.796105, 34.617629 ], [ 72.810824, 34.597318 ], [ 72.820538, 34.573475 ], [ 72.819949, 34.557579 ], [ 72.810235, 34.544627 ], [ 72.801404, 34.527554 ], [ 72.799932, 34.512247 ], [ 72.813179, 34.505771 ], [ 72.839966, 34.503416 ], [ 72.850563, 34.495468 ], [ 72.849974, 34.481045 ], [ 72.843792, 34.458673 ], [ 72.837022, 34.415401 ], [ 72.838494, 34.392441 ], [ 72.847325, 34.382433 ], [ 72.859099, 34.373013 ], [ 72.879116, 34.307958 ], [ 72.862926, 34.277933 ], [ 72.858805, 34.264098 ], [ 72.857333, 34.24261 ], [ 72.858805, 34.223476 ], [ 72.862926, 34.209052 ], [ 72.879116, 34.177555 ], [ 72.868813, 34.15695 ], [ 72.877056, 34.138699 ], [ 72.893834, 34.128985 ], [ 72.909141, 34.132812 ], [ 72.924448, 34.143115 ], [ 72.945054, 34.148707 ], [ 72.965365, 34.14753 ], [ 72.980966, 34.136639 ], [ 72.968308, 34.120448 ], [ 72.95359, 34.110146 ], [ 72.943876, 34.10102 ], [ 72.94682, 34.088068 ], [ 72.963893, 34.077766 ], [ 73.003632, 34.083064 ], [ 73.019233, 34.07806 ] ] ] } },
{ "type": "Feature", "properties": { "name": null, "name_en": null, "scalerank": 8 }, "geometry": { "type": "Polygon", "coordinates": [ [ [ 74.660608, 34.3998 ], [ 74.665023, 34.382727 ], [ 74.663257, 34.375368 ], [ 74.652954, 34.369481 ], [ 74.642357, 34.370069 ], [ 74.627345, 34.375662 ], [ 74.61351, 34.383316 ], [ 74.605267, 34.389792 ], [ 74.596731, 34.380666 ], [ 74.587311, 34.376545 ], [ 74.57848, 34.37684 ], [ 74.571121, 34.382433 ], [ 74.563762, 34.365654 ], [ 74.574654, 34.332391 ], [ 74.571121, 34.31414 ], [ 74.557286, 34.301188 ], [ 74.540802, 34.298833 ], [ 74.525495, 34.305604 ], [ 74.515781, 34.32091 ], [ 74.522845, 34.355057 ], [ 74.521079, 34.380961 ], [ 74.522845, 34.389792 ], [ 74.52991, 34.402744 ], [ 74.541096, 34.413635 ], [ 74.555225, 34.420406 ], [ 74.569944, 34.419817 ], [ 74.593493, 34.410986 ], [ 74.649422, 34.398328 ], [ 74.660608, 34.3998 ] ] ] } },
{ "type": "Feature", "properties": { "name": "Gozha Co", "name_en": "Guozha", "scalerank": 9 }, "geometry": { "type": "Polygon", "coordinates": [ [ [ 80.984138, 34.982347 ], [ 80.965593, 34.983524 ], [ 80.945282, 34.988234 ], [ 80.929092, 34.997654 ], [ 80.922616, 35.012961 ], [ 80.927031, 35.032977 ], [ 80.937628, 35.054466 ], [ 80.952052, 35.071539 ], [ 80.967065, 35.078604 ], [ 81.0, 35.083714747574142 ], [ 81.0, 34.986660151856483 ], [ 80.984138, 34.982347 ] ] ] } },
{ "type": "Feature", "properties": { "name": "Alesayqin Ha", "name_en": "Aksai Chin", "scalerank": 9 }, "geometry": { "type": "Polygon", "coordinates": [ [ [ 79.895874, 35.248746 ], [ 79.910003, 35.223137 ], [ 79.905294, 35.192228 ], [ 79.888809, 35.165735 ], [ 79.867615, 35.153667 ], [ 79.852602, 35.154844 ], [ 79.831702, 35.158376 ], [ 79.813452, 35.164264 ], [ 79.805504, 35.17074 ], [ 79.804327, 35.175744 ], [ 79.801383, 35.181042 ], [ 79.799028, 35.187224 ], [ 79.798734, 35.195172 ], [ 79.801677, 35.201059 ], [ 79.811391, 35.209007 ], [ 79.812274, 35.214894 ], [ 79.795496, 35.229907 ], [ 79.767237, 35.242565 ], [ 79.749281, 35.258755 ], [ 79.764587, 35.283776 ], [ 79.794318, 35.295844 ], [ 79.835235, 35.30026 ], [ 79.875563, 35.296433 ], [ 79.901761, 35.283776 ], [ 79.887043, 35.278183 ], [ 79.880567, 35.277005 ], [ 79.884099, 35.268469 ], [ 79.895874, 35.248746 ] ] ] } }
]
}
